H1 CPF 01  gfz 2021 03 18 13  5772 terrasarx 
H2 0702601  6201 31698    2021 03 18 12 59 42 2021 03 23 00 00 42   120 1 1  0 0 0
H9
10 0 59291  63342.000000  0   -3026342.387    473840.239  -6176962.553
10 0 59291  63462.000000  0   -2184428.197    630518.993  -6509290.300
10 0 59291  63582.000000  0   -1302151.495    761186.538  -6728031.957
10 0 59291  63702.000000  0    -395287.654    863016.625  -6829424.110
10 0 59291  63822.000000  0     519934.966    933960.847  -6811722.164
10 0 59291  63942.000000  0    1427117.027    972787.342  -6675228.679
10 0 59291  64062.000000  0    2309976.422    979101.902  -6422290.577
10 0 59291  64182.000000  0    3152634.999    953350.745  -6057262.871
10 0 59291  64302.000000  0    3939900.172    896804.670  -5586440.414
10 0 59291  64422.000000  0    4657537.039    811524.391  -5017960.076
10 0 59291  64542.000000  0    5292529.052    700308.333  -4361672.015
10 0 59291  64662.000000  0    5833321.228    566623.344  -3628979.243
10 0 59291  64782.000000  0    6270039.725    414518.963  -2832648.155
10 0 59291  64902.000000  0    6594684.275    248527.607  -1986592.615
10 0 59291  65022.000000  0    6801288.552     73551.920  -1105632.375
10 0 59291  65142.000000  0    6886040.904   -105257.575   -205230.787
10 0 59291  65262.000000  0    6847363.959   -282631.335    698781.213
10 0 59291  65382.000000  0    6685950.694   -453314.076   1590491.073
10 0 59291  65502.000000  0    6404754.589   -612198.078   2454193.688
10 0 59291  65622.000000  0    6008933.202   -754453.394   3274677.784
10 0 59291  65742.000000  0    5505746.552   -875651.131   4037500.284
10 0 59291  65862.000000  0    4904416.792   -971877.160   4729244.928
10 0 59291  65982.000000  0    4215948.701  -1039833.962   5337760.524
10 0 59291  66102.000000  0    3452917.822  -1076926.041   5852372.663
10 0 59291  66222.000000  0    2629231.964  -1081329.256   6264067.046
10 0 59291  66342.000000  0    1759871.102  -1052042.426   6565641.575
10 0 59291  66462.000000  0     860610.636   -988920.332   6751827.407
10 0 59291  66582.000000  0     -52268.283   -892686.628   6819375.248
10 0 59291  66702.000000  0    -962273.741   -764927.186   6767107.089
10 0 59291  66822.000000  0   -1852999.560   -608064.166   6595934.819
10 0 59291  66942.000000  0   -2708419.442   -425310.454   6308845.167
10 0 59291  67062.000000  0   -3513174.674   -220605.627   5910851.985
10 0 59291  67182.000000  0   -4252852.376      1465.660   5408914.982
10 0 59291  67302.000000  0   -4914249.010    235771.580   4811824.210
10 0 59291  67422.000000  0   -5485613.431    476745.137   4130051.441
10 0 59291  67542.000000  0   -5956864.481    718508.971   3375570.019
10 0 59291  67662.000000  0   -6319778.122    955010.001   2561646.840
10 0 59291  67782.000000  0   -6568140.915   1180161.042   1702608.154
10 0 59291  67902.000000  0   -6697865.033   1387985.491    813583.616
10 0 59291  68022.000000  0   -6707061.740   1572762.163    -89767.452
10 0 59291  68142.000000  0   -6596069.291   1729166.098   -991541.125
10 0 59291  68262.000000  0   -6367435.580   1852401.096  -1875877.508
10 0 59291  68382.000000  0   -6025857.636   1938321.920  -2727247.296
10 0 59291  68502.000000  0   -5578077.729   1983542.796  -3530731.652
10 0 59291  68622.000000  0   -5032738.868   1985528.212  -4272286.857
10 0 59291  68742.000000  0   -4400205.763   1942664.837  -4938988.120
10 0 59291  68862.000000  0   -3692356.332   1854313.395  -5519249.056
10 0 59291  68982.000000  0   -2922350.094   1720839.933  -6003013.713
10 0 59291  69102.000000  0   -2104378.457   1543625.884  -6381920.810
10 0 59291  69222.000000  0   -1253399.738   1325057.104  -6649437.094
10 0 59291  69342.000000  0    -384866.900   1068492.026  -6800957.829
10 0 59291  69462.000000  0     485547.664    778210.284  -6833876.684
10 0 59291  69582.000000  0    1342227.040    459342.934  -6747627.055
10 0 59291  69702.000000  0    2169884.851    117783.523  -6543691.975
10 0 59291  69822.000000  0    2953831.843   -239917.798  -6225580.717
10 0 59291  69942.000000  0    3680233.139   -606675.615  -5798775.016
10 0 59291  70062.000000  0    4336350.108   -975004.781  -5270643.075
10 0 59291  70182.000000  0    4910766.061  -1337168.233  -4650324.894
10 0 59291  70302.000000  0    5393591.621  -1685335.402  -3948585.306
10 0 59291  70422.000000  0    5776644.056  -2011746.980  -3177636.817
10 0 59291  70542.000000  0    6053597.094  -2308883.394  -2350933.975
10 0 59291  70662.000000  0    6220096.672  -2569633.242  -1482941.707
10 0 59291  70782.000000  0    6273839.198  -2787457.068   -588882.101
10 0 59291  70902.000000  0    6214610.425  -2956542.842    315536.477
10 0 59291  71022.000000  0    6044282.830  -3071948.613   1214401.009
10 0 59291  71142.000000  0    5766771.442  -3129728.813   2091883.106
10 0 59291  71262.000000  0    5387945.926  -3127040.361   2932527.844
10 0 59291  71382.000000  0    4915504.657  -3062225.817   3721533.472
10 0 59291  71502.000000  0    4358812.731  -2934870.509   4445017.179
10 0 59291  71622.000000  0    3728710.873  -2745835.070   5090262.191
10 0 59291  71742.000000  0    3037295.764  -2497261.372   5645942.626
10 0 59291  71862.000000  0    2297679.929  -2192550.582   6102318.799
10 0 59291  71982.000000  0    1523737.475  -1836316.163   6451402.919
10 0 59291  72102.000000  0     729839.835  -1434312.496   6687093.034
10 0 59291  72222.000000  0     -69413.459   -993340.109   6805273.535
10 0 59291  72342.000000  0    -859463.276   -521129.283   6803881.855
10 0 59291  72462.000000  0   -1626054.818    -26204.567   6682941.681
10 0 59291  72582.000000  0   -2355493.641    482268.713   6444562.636
10 0 59291  72702.000000  0   -3034889.788    994653.363   6092906.189
10 0 59291  72822.000000  0   -3652386.714   1501021.819   5634118.019
10 0 59291  72942.000000  0   -4197371.950   1991347.704   5076227.283
10 0 59291  73062.000000  0   -4660665.869   2455704.652   4429012.540
10 0 59291  73182.000000  0   -5034683.316   2884468.283   3703834.215
10 0 59291  73302.000000  0   -5313564.425   3268516.391   2913437.778
10 0 59291  73422.000000  0   -5493272.956   3599423.623   2071730.600
10 0 59291  73542.000000  0   -5571659.553   3869646.968   1193534.872
10 0 59291  73662.000000  0   -5548486.656   4072695.312    294319.791
10 0 59291  73782.000000  0   -5425413.836   4203279.015   -610078.467
10 0 59291  73902.000000  0   -5205945.875   4257436.457  -1503744.285
10 0 59291  74022.000000  0   -4895343.083   4232634.168  -2370972.638
10 0 59291  74142.000000  0   -4500495.111   4127835.943  -3196553.116
10 0 59291  74262.000000  0   -4029764.043   3943541.141  -3966040.865
10 0 59291  74382.000000  0   -3492801.042   3681791.678  -4666009.071
10 0 59291  74502.000000  0   -2900341.974   3346148.595  -5284278.669
10 0 59291  74622.000000  0   -2263989.006   2941639.597  -5810121.947
10 0 59291  74742.000000  0   -1595980.646   2474679.331  -6234440.078
10 0 59291  74862.000000  0    -908954.797   1952962.522  -6549909.305
10 0 59291  74982.000000  0    -215711.690   1385334.847  -6751095.382
10 0 59291  75102.000000  0     471020.182    781642.853  -6834537.240
10 0 59291  75222.000000  0    1138811.640    152566.141  -6798801.040
10 0 59291  75342.000000  0    1775753.692   -490568.043  -6644502.443
10 0 59291  75462.000000  0    2370664.468  -1135983.790  -6374295.816
10 0 59291  75582.000000  0    2913281.947  -1771666.586  -5992833.930
10 0 59291  75702.000000  0    3394439.402  -2385581.290  -5506696.346
10 0 59291  75822.000000  0    3806222.796  -2965897.630  -4924288.459
10 0 59291  75942.000000  0    4142105.253  -3501218.720  -4255705.799
10 0 59291  76062.000000  0    4397054.560  -3980805.335  -3512568.822
10 0 59291  76182.000000  0    4567614.882  -4394794.114  -2707830.461
10 0 59291  76302.000000  0    4651959.206  -4734404.638  -1855555.658
10 0 59291  76422.000000  0    4649910.119  -4992130.349   -970677.196
10 0 59291  76542.000000  0    4562926.741  -5161907.707    -68731.009
10 0 59291  76662.000000  0    4394058.271  -5239257.858    834422.444
10 0 59291  76782.000000  0    4147865.729  -5221398.208   1722885.247
10 0 59291  76902.000000  0    3830311.610  -5107318.833   2581011.503
10 0 59291  77022.000000  0    3448621.840  -4897823.783   3393690.350
10 0 59291  77142.000000  0    3011123.668  -4595535.508   4146619.114
10 0 59291  77262.000000  0    2527063.464  -4204861.782   4826559.086
10 0 59291  77382.000000  0    2006409.531  -3731927.047   5421569.602
10 0 59291  77502.000000  0    1459644.458  -3184470.393   5921216.401
10 0 59291  77622.000000  0     897551.339  -2571711.626   6316750.534
10 0 59291  77742.000000  0     330999.480  -1904190.585   6601255.089
10 0 59291  77862.000000  0    -229266.123  -1193582.341   6769759.298
10 0 59291  77982.000000  0    -772827.403   -452491.110   6819320.902
10 0 59291  78102.000000  0   -1289785.849    305774.336   6749074.193
10 0 59291  78222.000000  0   -1770942.194   1067439.246   6560243.987
10 0 59291  78342.000000  0   -2207959.775   1818512.208   6256125.506
10 0 59291  78462.000000  0   -2593509.703   2545041.353   5842030.527
10 0 59291  78582.000000  0   -2921395.051   3233374.207   5325200.438
10 0 59291  78702.000000  0   -3186653.309   3870416.537   4714686.319
10 0 59291  78822.000000  0   -3385634.490   4443886.018   4021196.250
10 0 59291  78942.000000  0   -3516052.717   4942555.389   3256911.515
10 0 59291  79062.000000  0   -3577009.944   5356479.611   2435273.676
10 0 59291  79182.000000  0   -3568991.038   5677200.532   1570745.887
10 0 59291  79302.000000  0   -3493830.113   5897923.929    678554.415
10 0 59291  79422.000000  0   -3354649.748   6013667.367   -225585.420
10 0 59291  79542.000000  0   -3155773.114   6021371.919  -1125755.741
10 0 59291  79662.000000  0   -2902611.673   5919974.099  -2006127.008
10 0 59291  79782.000000  0   -2601529.049   5710435.142  -2851245.958
99
